{
  "norad_id": 55339,
  "name": "STARLINK-5671",
  "history": [
    {
      "epoch": "2026-03-28T22:00:01.999584Z",
      "apogee_km": 533.493287716592,
      "perigee_km": 531.2328631419196,
      "latitude_deg": -42.927149230487764,
      "longitude_deg": -58.521756524904184,
      "height_km": 544.5478442256305,
      "semi_major_axis_km": 6910.500075429256,
      "eccentricity": 0.00016355,
      "inclination_deg": 43.0,
      "raan_deg": 195.0752,
      "arg_perigee_deg": 281.6477,
      "mean_anomaly_deg": 343.026,
      "mean_motion_rev_day": 15.11257774
    },
    {
      "epoch": "2026-03-29T04:00:01.999584Z",
      "apogee_km": 533.9405394439573,
      "perigee_km": 531.7691058132868,
      "latitude_deg": -4.512019374934449,
      "longitude_deg": 131.93697029276692,
      "height_km": 533.0439088771527,
      "semi_major_axis_km": 6910.991822628622,
      "eccentricity": 0.0001571,
      "inclination_deg": 43.0005,
      "raan_deg": 193.6944,
      "arg_perigee_deg": 261.3153,
      "mean_anomaly_deg": 285.2027,
      "mean_motion_rev_day": 15.11096478
    },
    {
      "epoch": "2026-03-30T04:00:01.999584Z",
      "apogee_km": 533.6855984321519,
      "perigee_km": 532.2425605267572,
      "latitude_deg": -33.05840769606795,
      "longitude_deg": 164.57367229085574,
      "height_km": 541.6169898132063,
      "semi_major_axis_km": 6911.101079479455,
      "eccentricity": 0.0001044,
      "inclination_deg": 43.0003,
      "raan_deg": 188.1868,
      "arg_perigee_deg": 269.7927,
      "mean_anomaly_deg": 322.9727,
      "mean_motion_rev_day": 15.11060645
    },
    {
      "epoch": "2026-03-30T06:00:02.000160Z",
      "apogee_km": 533.6507848981619,
      "perigee_km": 532.2638664888827,
      "latitude_deg": -22.1989067276297,
      "longitude_deg": -115.72186937078527,
      "height_km": 537.7590030635772,
      "semi_major_axis_km": 6911.0943256935225,
      "eccentricity": 0.00010034,
      "inclination_deg": 43.0004,
      "raan_deg": 187.7286,
      "arg_perigee_deg": 268.7463,
      "mean_anomaly_deg": 57.864,
      "mean_motion_rev_day": 15.1106286
    },
    {
      "epoch": "2026-03-30T14:00:03.000384Z",
      "apogee_km": 533.6246627038781,
      "perigee_km": 532.2536434166341,
      "latitude_deg": -12.243471059734677,
      "longitude_deg": 134.52786824743774,
      "height_km": 534.6922169623426,
      "semi_major_axis_km": 6911.076153060256,
      "eccentricity": 9.919e-05,
      "inclination_deg": 43.0004,
      "raan_deg": 185.8944,
      "arg_perigee_deg": 289.1827,
      "mean_anomaly_deg": 52.8779,
      "mean_motion_rev_day": 15.1106882
    },
    {
      "epoch": "2026-03-30T22:00:00.999936Z",
      "apogee_km": 533.6508795081027,
      "perigee_km": 532.0596926441558,
      "latitude_deg": -1.8940853754826532,
      "longitude_deg": 23.730072000976232,
      "height_km": 532.6570141409237,
      "semi_major_axis_km": 6910.992286076129,
      "eccentricity": 0.00011512,
      "inclination_deg": 43.0006,
      "raan_deg": 184.0569,
      "arg_perigee_deg": 284.9332,
      "mean_anomaly_deg": 72.3773,
      "mean_motion_rev_day": 15.11096326
    },
    {
      "epoch": "2026-03-31T20:00:01.999008Z",
      "apogee_km": 533.746389208327,
      "perigee_km": 532.0766798823815,
      "latitude_deg": -31.835614058134247,
      "longitude_deg": 8.332692960161419,
      "height_km": 540.8883823488139,
      "semi_major_axis_km": 6911.048534545354,
      "eccentricity": 0.0001208,
      "inclination_deg": 43.0007,
      "raan_deg": 179.0103,
      "arg_perigee_deg": 286.3839,
      "mean_anomaly_deg": 23.2904,
      "mean_motion_rev_day": 15.11077878
    },
    {
      "epoch": "2026-04-01T12:05:13.765920Z",
      "apogee_km": 533.5629935668503,
      "perigee_km": 532.3328204534018,
      "latitude_deg": 2.2010599372069386e-05,
      "longitude_deg": 164.14385138419968,
      "height_km": 532.766106652633,
      "semi_major_axis_km": 6911.084907010126,
      "eccentricity": 8.9e-05,
      "inclination_deg": 42.9992,
      "raan_deg": 175.3169,
      "arg_perigee_deg": 266.234,
      "mean_anomaly_deg": 93.8404,
      "mean_motion_rev_day": 15.11065949
    },
    {
      "epoch": "2026-04-02T11:53:01.213152Z",
      "apogee_km": 533.9534207715706,
      "perigee_km": 531.9156222227421,
      "latitude_deg": 5.3521784599787414e-05,
      "longitude_deg": 160.76070107813047,
      "height_km": 532.5305512380808,
      "semi_major_axis_km": 6911.071521497156,
      "eccentricity": 0.00014743,
      "inclination_deg": 43.0009,
      "raan_deg": 169.8587,
      "arg_perigee_deg": 280.3164,
      "mean_anomaly_deg": 79.7516,
      "mean_motion_rev_day": 15.11070339
    },
    {
      "epoch": "2026-04-02T21:24:08.309376Z",
      "apogee_km": 533.6044062009641,
      "perigee_km": 532.2585447260517,
      "latitude_deg": -4.873414938282526e-05,
      "longitude_deg": 15.40710813851931,
      "height_km": 532.5874700079136,
      "semi_major_axis_km": 6911.068475463508,
      "eccentricity": 9.737e-05,
      "inclination_deg": 43.0006,
      "raan_deg": 167.6757,
      "arg_perigee_deg": 280.4498,
      "mean_anomaly_deg": 79.6237,
      "mean_motion_rev_day": 15.11071338
    },
    {
      "epoch": "2026-04-03T14:51:11.475648Z",
      "apogee_km": 533.4520063260143,
      "perigee_km": 532.4181099461166,
      "latitude_deg": -5.142796276811459e-05,
      "longitude_deg": 108.9238303392352,
      "height_km": 532.7093244773172,
      "semi_major_axis_km": 6911.072058136066,
      "eccentricity": 7.48e-05,
      "inclination_deg": 43.0007,
      "raan_deg": 163.6723,
      "arg_perigee_deg": 270.3975,
      "mean_anomaly_deg": 89.6784,
      "mean_motion_rev_day": 15.11070163
    },
    {
      "epoch": "2026-04-04T11:28:37.661088Z",
      "apogee_km": 533.3931513456891,
      "perigee_km": 532.4967840144809,
      "latitude_deg": 4.118175116039148e-05,
      "longitude_deg": 153.98532748731145,
      "height_km": 532.7607956231508,
      "semi_major_axis_km": 6911.081967680085,
      "eccentricity": 6.485e-05,
      "inclination_deg": 42.9989,
      "raan_deg": 158.9398,
      "arg_perigee_deg": 265.0997,
      "mean_anomaly_deg": 94.9775,
      "mean_motion_rev_day": 15.11066913
    },
    {
      "epoch": "2026-04-05T12:51:37.436544Z",
      "apogee_km": 533.5177484329279,
      "perigee_km": 532.3436962482565,
      "latitude_deg": 5.358497234752131e-05,
      "longitude_deg": 126.36972096538821,
      "height_km": 532.7382731382613,
      "semi_major_axis_km": 6911.067722340592,
      "eccentricity": 8.494e-05,
      "inclination_deg": 42.998,
      "raan_deg": 153.1157,
      "arg_perigee_deg": 267.0782,
      "mean_anomaly_deg": 92.9967,
      "mean_motion_rev_day": 15.11071585
    },
    {
      "epoch": "2026-04-05T20:47:32.677152Z",
      "apogee_km": 533.726068437637,
      "perigee_km": 532.0494538305857,
      "latitude_deg": -3.335623626242062e-05,
      "longitude_deg": 5.2453023214125585,
      "height_km": 532.8650390301726,
      "semi_major_axis_km": 6911.024761134111,
      "eccentricity": 0.0001213,
      "inclination_deg": 43.0009,
      "raan_deg": 151.2973,
      "arg_perigee_deg": 256.2641,
      "mean_anomaly_deg": 103.8069,
      "mean_motion_rev_day": 15.11085675
    },
    {
      "epoch": "2026-04-06T04:43:29.130816Z",
      "apogee_km": 533.7933422386759,
      "perigee_km": 532.1048256866416,
      "latitude_deg": 1.797393194597205e-05,
      "longitude_deg": -115.8851372329627,
      "height_km": 532.8384968336344,
      "semi_major_axis_km": 6911.086083962658,
      "eccentricity": 0.00012216,
      "inclination_deg": 43.0023,
      "raan_deg": 149.4778,
      "arg_perigee_deg": 262.4453,
      "mean_anomaly_deg": 97.6254,
      "mean_motion_rev_day": 15.11065563
    },
    {
      "epoch": "2026-04-07T04:31:16.692096Z",
      "apogee_km": 533.773710920339,
      "perigee_km": 532.0865812086413,
      "latitude_deg": -2.708121767869949e-05,
      "longitude_deg": -119.27074919309122,
      "height_km": 532.841551392037,
      "semi_major_axis_km": 6911.06714606449,
      "eccentricity": 0.00012206,
      "inclination_deg": 43.0024,
      "raan_deg": 144.0177,
      "arg_perigee_deg": 260.9299,
      "mean_anomaly_deg": 99.1408,
      "mean_motion_rev_day": 15.11071774
    },
    {
      "epoch": "2026-04-07T20:23:08.881440Z",
      "apogee_km": 533.7666514075127,
      "perigee_km": 532.1066115212352,
      "latitude_deg": -4.811987199853341e-06,
      "longitude_deg": -1.5300147258999652,
      "height_km": 532.8621867078505,
      "semi_major_axis_km": 6911.073631464374,
      "eccentricity": 0.0001201,
      "inclination_deg": 43.0021,
      "raan_deg": 140.3774,
      "arg_perigee_deg": 259.7856,
      "mean_anomaly_deg": 100.2854,
      "mean_motion_rev_day": 15.11069647
    },
    {
      "epoch": "2026-04-08T09:04:38.831808Z",
      "apogee_km": 533.7443473195908,
      "perigee_km": 532.1483017366254,
      "latitude_deg": 2.2504342463222894e-05,
      "longitude_deg": 164.66179193245102,
      "height_km": 532.9063869734423,
      "semi_major_axis_km": 6911.083324528108,
      "eccentricity": 0.00011547,
      "inclination_deg": 43.0016,
      "raan_deg": 137.4652,
      "arg_perigee_deg": 256.831,
      "mean_anomaly_deg": 103.2407,
      "mean_motion_rev_day": 15.11066468
    },
    {
      "epoch": "2026-04-09T08:52:25.404672Z",
      "apogee_km": 533.851770873589,
      "perigee_km": 531.9372769208385,
      "latitude_deg": 3.4995679643636e-06,
      "longitude_deg": 161.28153697719853,
      "height_km": 532.5551335380416,
      "semi_major_axis_km": 6911.031523897213,
      "eccentricity": 0.00013851,
      "inclination_deg": 43.0017,
      "raan_deg": 132.0063,
      "arg_perigee_deg": 277.0754,
      "mean_anomaly_deg": 82.9934,
      "mean_motion_rev_day": 15.11083457
    }
  ]
}